#cP2024  3  1  0  0  0.00000000     577 d+D   IGS20 EXT AIUB
## 2303 432000.00000000   300.00000000 60370 0.0000000000000
+   78   G01G02G03G04G05G06G07G08G09G10G11G12G13G14G15G16G17
+        G19G20G21G22G23G24G25G26G27G28G29G30G31G32R01R02R03
+        R04R05R07R08R09R11R12R13R14R15R16R17R18R19R20R21R22
+        R24R26E02E03E04E05E07E08E09E10E11E12E13E14E15E18E19
+        E21E24E25E26E27E30E31E33E34E36  0  0  0  0  0  0  0
++         8  7  5  5  7  8  7  6  6  6  7  7  7  5  7  7  7
++         7  7  7  7  5  7  5  6  6  6  7  6  7  6  8  7  8
++         7  7  7  7  6  6  6  8  7  7  7  8  7  8  9  8  7
++         7  8  6  7  7  7  7  7  7  7  6  6  7  6  6  7  6
++         6  6  6  7  6  6  6  7  7  7  0  0  0  0  0  0  0
%c M  cc GPS ccc cccc cccc cccc cccc ccccc ccccc ccccc ccccc
%c cc cc ccc ccc cccc cccc cccc cccc ccccc ccccc ccccc ccccc
%f  1.2500000  1.025000000  0.00000000000  0.000000000000000
%f  0.0000000  0.000000000  0.00000000000  0.000000000000000
%i    0    0    0    0      0      0      0      0         0
%i    0    0    0    0      0      0      0      0         0
/* Center for Orbit Determination in Europe (CODE)          
/* Ultra-rapid GRE orbits starting year-day 24061 00 hour   
/* Observed/predicted: 23/25 hours (data used up to 061W)   
/* PCV:IGS20      OL/AL:FES2014b NONE     YN ORB:CoN CLK:BRD
*  2024  3  2 10 50  0.00000000
PG01 -22155.099987 -10536.301573  10257.116271    171.946581               P   P
PG02 -22587.367700 -14137.178171   2218.671711   -476.834922               P   P
PG03 -12665.119132  -9461.542247  21222.462879    227.398072               P   P
PG04 -21570.415342  -4022.848848  15076.358130    305.087130               P   P
PG05   7304.170451  21079.804945 -14513.268307   -163.866036               P   P
PG06  -3659.209228  15388.965687  21381.360680    385.060188               P   P
PG07 -19667.995789   -176.297798 -17569.827301    -74.844243               P   P
PG08 -15072.232274  -9268.871789 -20029.943016     24.694771               P   P
PG09 -25341.015647   7223.879386   3493.821035    110.627542               P   P
PG10  10638.608548 -21934.811813  -9931.660002      0.950100               P   P
PG11   7613.915672  20854.278193  14638.972294   -593.822527               P   P
PG12  12071.251773  11008.697088  20668.011455   -483.291196               P   P
PG13   5243.403523  14263.186868 -21997.676989    630.510683               P   P
PG14 -13363.328218  18852.694465 -12898.353816    340.019958               P   P
PG15  15918.871294   8282.779584 -20130.380962    133.389968               P   P
PG16  -1173.289099 -24196.912819 -10672.317411   -350.472877               P   P
PG17 -21136.221270  13214.695287   9811.091228    715.155121               P   P
PG19 -13694.794546  15117.707102  16622.215302    448.291251               P   P
PG20   1375.425287  26534.308182  -1982.573486    385.448974               P   P
PG21 -20834.923608 -17004.210119  -2874.781028    132.918063               P   P
PG22 -10277.522262  24024.982779  -5129.687266     22.403058               P   P
PG23  14618.856752 -11303.720116 -18981.097481    168.033720               P   P
PG24  21583.004285  15854.437628  -1024.544773   -440.325702               P   P
PG25  15494.179169  -1076.042127  21180.291041    490.184645               P   P
PG26   3684.015317 -26049.544366   1467.352813    184.233942               P   P
PG27  -2052.444313 -15385.312832 -21791.963037     -8.619643               P   P
PG28   6136.258643 -14273.427496  21522.362127   -149.881914               P   P
PG29  25865.986358  -3587.602535   5088.818949   -605.782851               P   P
PG30 -12042.919682  10280.625334 -21209.421852   -425.314219               P   P
PG31  -2927.004912 -19249.044384  17669.722580   -227.906741               P   P
PG32  17913.856308 -15558.555260  11924.515645   -614.245848               P   P
PR01  19078.988401  -8514.760508 -14636.842065     78.601201               P   P
PR02  18356.840298 -17530.095360   2197.826604    -22.545191               P   P
PR03   6698.438353 -17169.140975  17658.632132     95.617075               P   P
PR04  -7970.391127  -7273.882696  23148.233985    225.799061               P   P
PR05 -18653.881535   6358.079580  16225.886185    127.779607               P   P
PR07  -6115.677961  16887.755559 -18089.689571     77.008669               P   P
PR08   8244.557708   7115.495946 -22999.629309    -74.639210               P   P
PR09  -5957.069494  15668.575962 -19182.055535    173.037427               P   P
PR11   9933.799320  20890.632021  10738.672615     32.585426               P   P
PR12  11717.789926   3165.708540  22455.086721     37.341281               P   P
PR13   7024.991913 -13427.343647  20497.174865    -44.915575               P   P
PR14  -3029.076161 -24805.477456   5170.034828     26.144309               P   P
PR15 -10264.012478 -20019.879252 -12013.962239     81.717390               P   P
PR16 -11626.923223  -3471.085191 -22438.996086     23.686706               P   P
PR17  -4722.389505 -12123.728781 -21925.011419     65.599972               P   P
PR18 -19446.279583 -12102.093494 -11272.646588    130.129069               P   P
PR19 -24132.027694  -7482.490644   3529.376125   -267.738479               P   P
PR20 -14443.284444   4302.148185  20603.990475   -109.144954               P   P
PR21   4900.498959  12142.001320  21895.010457    -81.313635               P   P
PR22  19654.447574  12600.229766  10282.119371    110.768270               P   P
PR24  13855.191641  -5608.461023 -20654.652834    -46.155772               P   P
PR26   7510.026091   7803.272780 -23069.283822   -195.521579               P   P
PE02  17386.591221  -3395.653616  23699.158821    107.892956               P   P
PE03  28456.697039  -4887.273221  -6543.351620    -97.484678               P   P
PE04 -21542.069150  16292.721584 -12100.175114   -340.110071               P   P
PE05  18639.376220   9195.176236 -21068.856776   4725.234678               P   P
PE07   2595.906095 -18090.913035  23293.958398   -106.688261               P   P
PE08  22089.095019 -15979.171181  11544.301425   -232.482701               P   P
PE09  -2751.257511  17974.223057 -23348.636246   -355.785562               P   P
PE10  -1918.079659  18160.112083  23291.799256   -606.159906               P   P
PE11   8306.318777  22347.033329  17522.674605   3208.239120               P   P
PE12 -10890.410419  11810.197364  24861.233461   -930.339999               P   P
PE13  -7767.546499 -22162.554335 -18021.667452    -20.376609               P   P
PE14  -5128.013739 -18589.538832 -22797.396457 999999.999999               P   P
PE15  11281.878176 -11351.798564 -24891.760614    -88.904167               P   P
PE18  21323.599336   8093.813767  16055.866129 999999.999999               P   P
PE19 -28147.974734   3204.741955   8595.602717   -510.173911               P   P
PE21 -11358.773235 -17388.025374 -21096.769301   -581.832295               P   P
PE24  -1944.337176  29002.041022   5640.948016   -628.571565               P   P
PE25  11133.085925  17774.872885  20887.293293      1.597194               P   P
PE26 -22224.121839 -19557.941040   -108.564841    384.656768               P   P
PE27   1571.977101 -28928.856386  -6041.146683   -288.465459               P   P
PE30  13606.440011 -23084.729230  12540.071408    -53.138565               P   P
PE31 -13428.473241  23286.819304 -12403.153538    -17.273157               P   P
PE33 -23599.933340  -6434.156056  16675.838007      8.421190               P   P
PE34  23449.083571   5907.410860 -17072.063956    -97.685400               P   P
PE36  21939.906019  19842.584776    754.246955   -193.555708               P   P
EOF
